CCSDS_OMM_VERS = 2.0
CREATION_DATE  = 
ORIGINATOR     = 

OBJECT_NAME    = STARLINK-36264
OBJECT_ID      = 2026-057P
CENTER_NAME    = EARTH
REF_FRAME      = TEME
TIME_SYSTEM    = UTC
MEAN_ELEMENT_THEORY = SGP/SGP4

EPOCH          = 2026-03-31T20:00:01.999008
MEAN_MOTION    = 15.95658902
ECCENTRICITY   = .0001387
INCLINATION    = 97.2774
RA_OF_ASC_NODE = 214.2233
ARG_OF_PERICENTER = 83.3946
MEAN_ANOMALY   = 152.2035

EPHEMERIS_TYPE = 0
CLASSIFICATION_TYPE = U
NORAD_CAT_ID   = 68307
ELEMENT_SET_NO = 999
REV_AT_EPOCH   = 293
BSTAR          = -.35578E-2
MEAN_MOTION_DOT = -.1410777E-1
MEAN_MOTION_DDOT = .5912E-3

CCSDS_OMM_VERS = 2.0
CREATION_DATE  = 
ORIGINATOR     = 

OBJECT_NAME    = STARLINK-37138
OBJECT_ID      = 2026-057Q
CENTER_NAME    = EARTH
REF_FRAME      = TEME
TIME_SYSTEM    = UTC
MEAN_ELEMENT_THEORY = SGP/SGP4

EPOCH          = 2026-03-31T20:00:01.999008
MEAN_MOTION    = 15.95755163
ECCENTRICITY   = .0001354
INCLINATION    = 97.2767
RA_OF_ASC_NODE = 214.2237
ARG_OF_PERICENTER = 94.5721
MEAN_ANOMALY   = 143.9325

EPHEMERIS_TYPE = 0
CLASSIFICATION_TYPE = U
NORAD_CAT_ID   = 68308
ELEMENT_SET_NO = 999
REV_AT_EPOCH   = 260
BSTAR          = -.35436E-2
MEAN_MOTION_DOT = -.1412404E-1
MEAN_MOTION_DDOT = .59306E-3

CCSDS_OMM_VERS = 2.0
CREATION_DATE  = 
ORIGINATOR     = 

OBJECT_NAME    = STARLINK-37149
OBJECT_ID      = 2026-057R
CENTER_NAME    = EARTH
REF_FRAME      = TEME
TIME_SYSTEM    = UTC
MEAN_ELEMENT_THEORY = SGP/SGP4

EPOCH          = 2026-03-31T20:00:01.999008
MEAN_MOTION    = 15.95834426
ECCENTRICITY   = .0001336
INCLINATION    = 97.2763
RA_OF_ASC_NODE = 214.2250
ARG_OF_PERICENTER = 88.8975
MEAN_ANOMALY   = 153.1998

EPHEMERIS_TYPE = 0
CLASSIFICATION_TYPE = U
NORAD_CAT_ID   = 68309
ELEMENT_SET_NO = 999
REV_AT_EPOCH   = 271
BSTAR          = -.35005E-2
MEAN_MOTION_DOT = -.1401256E-1
MEAN_MOTION_DDOT = .58491E-3

CCSDS_OMM_VERS = 2.0
CREATION_DATE  = 
ORIGINATOR     = 

OBJECT_NAME    = STARLINK-37148
OBJECT_ID      = 2026-057S
CENTER_NAME    = EARTH
REF_FRAME      = TEME
TIME_SYSTEM    = UTC
MEAN_ELEMENT_THEORY = SGP/SGP4

EPOCH          = 2026-03-31T20:00:01.999008
MEAN_MOTION    = 15.96015992
ECCENTRICITY   = .0001381
INCLINATION    = 97.2760
RA_OF_ASC_NODE = 214.2282
ARG_OF_PERICENTER = 84.7004
MEAN_ANOMALY   = 164.8544

EPHEMERIS_TYPE = 0
CLASSIFICATION_TYPE = U
NORAD_CAT_ID   = 68310
ELEMENT_SET_NO = 999
REV_AT_EPOCH   = 282
BSTAR          = -.34976E-2
MEAN_MOTION_DOT = -.1413702E-1
MEAN_MOTION_DDOT = .5957E-3

CCSDS_OMM_VERS = 2.0
CREATION_DATE  = 
ORIGINATOR     = 

OBJECT_NAME    = STARLINK-37140
OBJECT_ID      = 2026-057T
CENTER_NAME    = EARTH
REF_FRAME      = TEME
TIME_SYSTEM    = UTC
MEAN_ELEMENT_THEORY = SGP/SGP4

EPOCH          = 2026-03-31T20:00:01.999008
MEAN_MOTION    = 15.95924235
ECCENTRICITY   = .0001327
INCLINATION    = 97.2764
RA_OF_ASC_NODE = 214.2273
ARG_OF_PERICENTER = 83.0828
MEAN_ANOMALY   = 162.9291

EPHEMERIS_TYPE = 0
CLASSIFICATION_TYPE = U
NORAD_CAT_ID   = 68311
ELEMENT_SET_NO = 999
REV_AT_EPOCH   = 297
BSTAR          = -.35021E-2
MEAN_MOTION_DOT = -.1408619E-1
MEAN_MOTION_DDOT = .59117E-3

CCSDS_OMM_VERS = 2.0
CREATION_DATE  = 
ORIGINATOR     = 

OBJECT_NAME    = STARLINK-36854
OBJECT_ID      = 2026-057U
CENTER_NAME    = EARTH
REF_FRAME      = TEME
TIME_SYSTEM    = UTC
MEAN_ELEMENT_THEORY = SGP/SGP4

EPOCH          = 2026-03-31T20:00:01.999008
MEAN_MOTION    = 15.96103447
ECCENTRICITY   = .0001435
INCLINATION    = 97.2761
RA_OF_ASC_NODE = 214.2304
ARG_OF_PERICENTER = 84.6692
MEAN_ANOMALY   = 168.3333

EPHEMERIS_TYPE = 0
CLASSIFICATION_TYPE = U
NORAD_CAT_ID   = 68312
ELEMENT_SET_NO = 999
REV_AT_EPOCH   = 277
BSTAR          = -.34578E-2
MEAN_MOTION_DOT = -.140431E-1
MEAN_MOTION_DDOT = .58894E-3

CCSDS_OMM_VERS = 2.0
CREATION_DATE  = 
ORIGINATOR     = 

OBJECT_NAME    = STARLINK-36815
OBJECT_ID      = 2026-057V
CENTER_NAME    = EARTH
REF_FRAME      = TEME
TIME_SYSTEM    = UTC
MEAN_ELEMENT_THEORY = SGP/SGP4

EPOCH          = 2026-03-31T20:00:01.999008
MEAN_MOTION    = 15.96189367
ECCENTRICITY   = .000136
INCLINATION    = 97.2762
RA_OF_ASC_NODE = 214.2324
ARG_OF_PERICENTER = 82.2766
MEAN_ANOMALY   = 174.7784

EPHEMERIS_TYPE = 0
CLASSIFICATION_TYPE = U
NORAD_CAT_ID   = 68313
ELEMENT_SET_NO = 999
REV_AT_EPOCH   = 277
BSTAR          = -.34371E-2
MEAN_MOTION_DOT = -.140242E-1
MEAN_MOTION_DDOT = .58801E-3

CCSDS_OMM_VERS = 2.0
CREATION_DATE  = 
ORIGINATOR     = 

OBJECT_NAME    = STARLINK-37155
OBJECT_ID      = 2026-057W
CENTER_NAME    = EARTH
REF_FRAME      = TEME
TIME_SYSTEM    = UTC
MEAN_ELEMENT_THEORY = SGP/SGP4

EPOCH          = 2026-03-31T20:00:01.999008
MEAN_MOTION    = 15.96381722
ECCENTRICITY   = .0001416
INCLINATION    = 97.2756
RA_OF_ASC_NODE = 214.2356
ARG_OF_PERICENTER = 80.0170
MEAN_ANOMALY   = 185.4650

EPHEMERIS_TYPE = 0
CLASSIFICATION_TYPE = U
NORAD_CAT_ID   = 68314
ELEMENT_SET_NO = 999
REV_AT_EPOCH   = 282
BSTAR          = -.3454E-2
MEAN_MOTION_DOT = -.1423773E-1
MEAN_MOTION_DDOT = .60593E-3

CCSDS_OMM_VERS = 2.0
CREATION_DATE  = 
ORIGINATOR     = 

OBJECT_NAME    = STARLINK-37150
OBJECT_ID      = 2026-057X
CENTER_NAME    = EARTH
REF_FRAME      = TEME
TIME_SYSTEM    = UTC
MEAN_ELEMENT_THEORY = SGP/SGP4

EPOCH          = 2026-03-31T12:00:02.000160
MEAN_MOTION    = 15.97245182
ECCENTRICITY   = .00014236
INCLINATION    = 97.2756
RA_OF_ASC_NODE = 213.8740
ARG_OF_PERICENTER = 75.3830
MEAN_ANOMALY   = 71.3696

EPHEMERIS_TYPE = 0
CLASSIFICATION_TYPE = U
NORAD_CAT_ID   = 68315
ELEMENT_SET_NO = 999
REV_AT_EPOCH   = 276
BSTAR          = -.34931171E-2
MEAN_MOTION_DOT = -.1508059E-1
MEAN_MOTION_DDOT = .68031845E-3

CCSDS_OMM_VERS = 2.0
CREATION_DATE  = 
ORIGINATOR     = 

OBJECT_NAME    = STARLINK-37154
OBJECT_ID      = 2026-057Y
CENTER_NAME    = EARTH
REF_FRAME      = TEME
TIME_SYSTEM    = UTC
MEAN_ELEMENT_THEORY = SGP/SGP4

EPOCH          = 2026-03-31T14:00:01.999872
MEAN_MOTION    = 15.97276477
ECCENTRICITY   = .00013503
INCLINATION    = 97.2749
RA_OF_ASC_NODE = 213.9690
ARG_OF_PERICENTER = 74.1422
MEAN_ANOMALY   = 203.6921

EPHEMERIS_TYPE = 0
CLASSIFICATION_TYPE = U
NORAD_CAT_ID   = 68316
ELEMENT_SET_NO = 999
REV_AT_EPOCH   = 268
BSTAR          = -.33783586E-2
MEAN_MOTION_DOT = -.1461515E-1
MEAN_MOTION_DDOT = .64212558E-3

CCSDS_OMM_VERS = 2.0
CREATION_DATE  = 
ORIGINATOR     = 

OBJECT_NAME    = STARLINK-37139
OBJECT_ID      = 2026-057Z
CENTER_NAME    = EARTH
REF_FRAME      = TEME
TIME_SYSTEM    = UTC
MEAN_ELEMENT_THEORY = SGP/SGP4

EPOCH          = 2026-03-31T14:00:01.999872
MEAN_MOTION    = 15.97172444
ECCENTRICITY   = .00013469
INCLINATION    = 97.2750
RA_OF_ASC_NODE = 213.9671
ARG_OF_PERICENTER = 75.3900
MEAN_ANOMALY   = 198.2827

EPHEMERIS_TYPE = 0
CLASSIFICATION_TYPE = U
NORAD_CAT_ID   = 68317
ELEMENT_SET_NO = 999
REV_AT_EPOCH   = 253
BSTAR          = -.33802725E-2
MEAN_MOTION_DOT = -.1454146E-1
MEAN_MOTION_DDOT = .63542776E-3

CCSDS_OMM_VERS = 2.0
CREATION_DATE  = 
ORIGINATOR     = 

OBJECT_NAME    = STARLINK-37113
OBJECT_ID      = 2026-057AA
CENTER_NAME    = EARTH
REF_FRAME      = TEME
TIME_SYSTEM    = UTC
MEAN_ELEMENT_THEORY = SGP/SGP4

EPOCH          = 2026-03-31T12:00:02.000160
MEAN_MOTION    = 15.97643016
ECCENTRICITY   = .00015392
INCLINATION    = 97.2748
RA_OF_ASC_NODE = 213.8809
ARG_OF_PERICENTER = 65.7433
MEAN_ANOMALY   = 97.5267

EPHEMERIS_TYPE = 0
CLASSIFICATION_TYPE = U
NORAD_CAT_ID   = 68318
ELEMENT_SET_NO = 999
REV_AT_EPOCH   = 276
BSTAR          = -.34434318E-2
MEAN_MOTION_DOT = -.1519226E-1
MEAN_MOTION_DDOT = .69266914E-3

